ONEWEB-0683             
1 56719U 23068K   25258.86874217 -.00000155  00000+0 -44604-3 0  9995
2 56719  87.9027 313.9197 0002162 101.5856 258.5517 13.15549512113355
ONEWEB-0684             
1 56720U 23068L   25258.64848090 -.00000056  00000+0 -18261-3 0  9993
2 56720  87.9016 313.9622 0000784 140.9079 219.2108 13.15549736113156
ONEWEB-0686             
1 56721U 23068M   25259.04661937 -.00000114  00000+0 -33199-3 0  9994
2 56721  87.8969 283.4373 0001973 102.0693 258.0659 13.16594636115647
ONEWEB-0694             
1 56722U 23068N   25259.08938358  .00000023  00000+0  25976-4 0  9995
2 56722  87.8990 283.3587 0002310  98.0074 262.1319 13.16593761115705
ONEWEB-0696             
1 56723U 23068P   25259.13810152  .00000155  00000+0  37900-3 0  9998
2 56723  87.9025 313.9187 0001577  95.4567 264.6744 13.15549536113330
ONEWEB-0703             
1 56724U 23068Q   25259.07155004  .00000135  00000+0  32488-3 0  9994
2 56724  87.9020 313.9161 0001306  62.7167 297.4096 13.15549712113218
ONEWEB-0721             
1 56725U 23068R   25259.10005868  .00000104  00000+0  21585-3 0  9993
2 56725  86.6877 172.8961 0001836  73.9785 286.1551 13.22444944121717
ONEWEB-0015             
1 61594U 24188A   25259.25146599  .00000608  00000+0  16806-2 0  9998
2 61594  87.8780  75.6743 0002238  80.2258 279.9123 13.11417993 48551
