<?xml version="1.0" encoding="UTF-8"?>
<ndm xmlns:xsi="http://www.w3.org/2001/XMLSchema-instance" xsi:noNamespaceSchemaLocation="https://sanaregistry.org/r/ndmxml_unqualified/ndmxml-2.0.0-master-2.0.xsd">
<omm id="CCSDS_OMM_VERS" version="2.0">
<header><CREATION_DATE/><ORIGINATOR/></header><body><segment><metadata><OBJECT_NAME>ONEWEB-0683</OBJECT_NAME><OBJECT_ID>2023-068K</OBJECT_ID><CENTER_NAME>EARTH</CENTER_NAME><REF_FRAME>TEME</REF_FRAME><TIME_SYSTEM>UTC</TIME_SYSTEM><MEAN_ELEMENT_THEORY>SGP4</MEAN_ELEMENT_THEORY></metadata><data><meanElements><EPOCH>2025-09-15T20:50:59.323488</EPOCH><MEAN_MOTION>13.15549512</MEAN_MOTION><ECCENTRICITY>.0002162</ECCENTRICITY><INCLINATION>87.9027</INCLINATION><RA_OF_ASC_NODE>313.9197</RA_OF_ASC_NODE><ARG_OF_PERICENTER>101.5856</ARG_OF_PERICENTER><MEAN_ANOMALY>258.5517</MEAN_ANOMALY></meanElements><tleParameters><EPHEMERIS_TYPE>0</EPHEMERIS_TYPE><CLASSIFICATION_TYPE>U</CLASSIFICATION_TYPE><NORAD_CAT_ID>56719</NORAD_CAT_ID><ELEMENT_SET_NO>999</ELEMENT_SET_NO><REV_AT_EPOCH>11335</REV_AT_EPOCH><BSTAR>-.44603795E-3</BSTAR><MEAN_MOTION_DOT>-.155E-5</MEAN_MOTION_DOT><MEAN_MOTION_DDOT>0</MEAN_MOTION_DDOT></tleParameters></data></segment></body></omm>
<omm id="CCSDS_OMM_VERS" version="2.0">
<header><CREATION_DATE/><ORIGINATOR/></header><body><segment><metadata><OBJECT_NAME>ONEWEB-0684</OBJECT_NAME><OBJECT_ID>2023-068L</OBJECT_ID><CENTER_NAME>EARTH</CENTER_NAME><REF_FRAME>TEME</REF_FRAME><TIME_SYSTEM>UTC</TIME_SYSTEM><MEAN_ELEMENT_THEORY>SGP4</MEAN_ELEMENT_THEORY></metadata><data><meanElements><EPOCH>2025-09-15T15:33:48.749760</EPOCH><MEAN_MOTION>13.15549736</MEAN_MOTION><ECCENTRICITY>.00007841</ECCENTRICITY><INCLINATION>87.9016</INCLINATION><RA_OF_ASC_NODE>313.9622</RA_OF_ASC_NODE><ARG_OF_PERICENTER>140.9079</ARG_OF_PERICENTER><MEAN_ANOMALY>219.2108</MEAN_ANOMALY></meanElements><tleParameters><EPHEMERIS_TYPE>0</EPHEMERIS_TYPE><CLASSIFICATION_TYPE>U</CLASSIFICATION_TYPE><NORAD_CAT_ID>56720</NORAD_CAT_ID><ELEMENT_SET_NO>999</ELEMENT_SET_NO><REV_AT_EPOCH>11315</REV_AT_EPOCH><BSTAR>-.18260951E-3</BSTAR><MEAN_MOTION_DOT>-.56E-6</MEAN_MOTION_DOT><MEAN_MOTION_DDOT>0</MEAN_MOTION_DDOT></tleParameters></data></segment></body></omm>
<omm id="CCSDS_OMM_VERS" version="2.0">
<header><CREATION_DATE/><ORIGINATOR/></header><body><segment><metadata><OBJECT_NAME>ONEWEB-0686</OBJECT_NAME><OBJECT_ID>2023-068M</OBJECT_ID><CENTER_NAME>EARTH</CENTER_NAME><REF_FRAME>TEME</REF_FRAME><TIME_SYSTEM>UTC</TIME_SYSTEM><MEAN_ELEMENT_THEORY>SGP4</MEAN_ELEMENT_THEORY></metadata><data><meanElements><EPOCH>2025-09-16T01:07:07.913568</EPOCH><MEAN_MOTION>13.16594636</MEAN_MOTION><ECCENTRICITY>.00019739</ECCENTRICITY><INCLINATION>87.8969</INCLINATION><RA_OF_ASC_NODE>283.4373</RA_OF_ASC_NODE><ARG_OF_PERICENTER>102.0693</ARG_OF_PERICENTER><MEAN_ANOMALY>258.0659</MEAN_ANOMALY></meanElements><tleParameters><EPHEMERIS_TYPE>0</EPHEMERIS_TYPE><CLASSIFICATION_TYPE>U</CLASSIFICATION_TYPE><NORAD_CAT_ID>56721</NORAD_CAT_ID><ELEMENT_SET_NO>999</ELEMENT_SET_NO><REV_AT_EPOCH>11564</REV_AT_EPOCH><BSTAR>-.33198641E-3</BSTAR><MEAN_MOTION_DOT>-.114E-5</MEAN_MOTION_DOT><MEAN_MOTION_DDOT>0</MEAN_MOTION_DDOT></tleParameters></data></segment></body></omm>
<omm id="CCSDS_OMM_VERS" version="2.0">
<header><CREATION_DATE/><ORIGINATOR/></header><body><segment><metadata><OBJECT_NAME>ONEWEB-0694</OBJECT_NAME><OBJECT_ID>2023-068N</OBJECT_ID><CENTER_NAME>EARTH</CENTER_NAME><REF_FRAME>TEME</REF_FRAME><TIME_SYSTEM>UTC</TIME_SYSTEM><MEAN_ELEMENT_THEORY>SGP4</MEAN_ELEMENT_THEORY></metadata><data><meanElements><EPOCH>2025-09-16T02:08:42.741312</EPOCH><MEAN_MOTION>13.16593761</MEAN_MOTION><ECCENTRICITY>.00023104</ECCENTRICITY><INCLINATION>87.8990</INCLINATION><RA_OF_ASC_NODE>283.3587</RA_OF_ASC_NODE><ARG_OF_PERICENTER>98.0074</ARG_OF_PERICENTER><MEAN_ANOMALY>262.1319</MEAN_ANOMALY></meanElements><tleParameters><EPHEMERIS_TYPE>0</EPHEMERIS_TYPE><CLASSIFICATION_TYPE>U</CLASSIFICATION_TYPE><NORAD_CAT_ID>56722</NORAD_CAT_ID><ELEMENT_SET_NO>999</ELEMENT_SET_NO><REV_AT_EPOCH>11570</REV_AT_EPOCH><BSTAR>.25976051E-4</BSTAR><MEAN_MOTION_DOT>.23E-6</MEAN_MOTION_DOT><MEAN_MOTION_DDOT>0</MEAN_MOTION_DDOT></tleParameters></data></segment></body></omm>
<omm id="CCSDS_OMM_VERS" version="2.0">
<header><CREATION_DATE/><ORIGINATOR/></header><body><segment><metadata><OBJECT_NAME>ONEWEB-0696</OBJECT_NAME><OBJECT_ID>2023-068P</OBJECT_ID><CENTER_NAME>EARTH</CENTER_NAME><REF_FRAME>TEME</REF_FRAME><TIME_SYSTEM>UTC</TIME_SYSTEM><MEAN_ELEMENT_THEORY>SGP4</MEAN_ELEMENT_THEORY></metadata><data><meanElements><EPOCH>2025-09-16T03:18:51.971328</EPOCH><MEAN_MOTION>13.15549536</MEAN_MOTION><ECCENTRICITY>.00015778</ECCENTRICITY><INCLINATION>87.9025</INCLINATION><RA_OF_ASC_NODE>313.9187</RA_OF_ASC_NODE><ARG_OF_PERICENTER>95.4567</ARG_OF_PERICENTER><MEAN_ANOMALY>264.6744</MEAN_ANOMALY></meanElements><tleParameters><EPHEMERIS_TYPE>0</EPHEMERIS_TYPE><CLASSIFICATION_TYPE>U</CLASSIFICATION_TYPE><NORAD_CAT_ID>56723</NORAD_CAT_ID><ELEMENT_SET_NO>999</ELEMENT_SET_NO><REV_AT_EPOCH>11333</REV_AT_EPOCH><BSTAR>.37899509E-3</BSTAR><MEAN_MOTION_DOT>.155E-5</MEAN_MOTION_DOT><MEAN_MOTION_DDOT>0</MEAN_MOTION_DDOT></tleParameters></data></segment></body></omm>
<omm id="CCSDS_OMM_VERS" version="2.0">
<header><CREATION_DATE/><ORIGINATOR/></header><body><segment><metadata><OBJECT_NAME>ONEWEB-0703</OBJECT_NAME><OBJECT_ID>2023-068Q</OBJECT_ID><CENTER_NAME>EARTH</CENTER_NAME><REF_FRAME>TEME</REF_FRAME><TIME_SYSTEM>UTC</TIME_SYSTEM><MEAN_ELEMENT_THEORY>SGP4</MEAN_ELEMENT_THEORY></metadata><data><meanElements><EPOCH>2025-09-16T01:43:01.923456</EPOCH><MEAN_MOTION>13.15549712</MEAN_MOTION><ECCENTRICITY>.00013065</ECCENTRICITY><INCLINATION>87.9020</INCLINATION><RA_OF_ASC_NODE>313.9161</RA_OF_ASC_NODE><ARG_OF_PERICENTER>62.7167</ARG_OF_PERICENTER><MEAN_ANOMALY>297.4096</MEAN_ANOMALY></meanElements><tleParameters><EPHEMERIS_TYPE>0</EPHEMERIS_TYPE><CLASSIFICATION_TYPE>U</CLASSIFICATION_TYPE><NORAD_CAT_ID>56724</NORAD_CAT_ID><ELEMENT_SET_NO>999</ELEMENT_SET_NO><REV_AT_EPOCH>11321</REV_AT_EPOCH><BSTAR>.32487821E-3</BSTAR><MEAN_MOTION_DOT>.135E-5</MEAN_MOTION_DOT><MEAN_MOTION_DDOT>0</MEAN_MOTION_DDOT></tleParameters></data></segment></body></omm>
<omm id="CCSDS_OMM_VERS" version="2.0">
<header><CREATION_DATE/><ORIGINATOR/></header><body><segment><metadata><OBJECT_NAME>ONEWEB-0721</OBJECT_NAME><OBJECT_ID>2023-068R</OBJECT_ID><CENTER_NAME>EARTH</CENTER_NAME><REF_FRAME>TEME</REF_FRAME><TIME_SYSTEM>UTC</TIME_SYSTEM><MEAN_ELEMENT_THEORY>SGP4</MEAN_ELEMENT_THEORY></metadata><data><meanElements><EPOCH>2025-09-16T02:24:05.069952</EPOCH><MEAN_MOTION>13.22444944</MEAN_MOTION><ECCENTRICITY>.00018367</ECCENTRICITY><INCLINATION>86.6877</INCLINATION><RA_OF_ASC_NODE>172.8961</RA_OF_ASC_NODE><ARG_OF_PERICENTER>73.9785</ARG_OF_PERICENTER><MEAN_ANOMALY>286.1551</MEAN_ANOMALY></meanElements><tleParameters><EPHEMERIS_TYPE>0</EPHEMERIS_TYPE><CLASSIFICATION_TYPE>U</CLASSIFICATION_TYPE><NORAD_CAT_ID>56725</NORAD_CAT_ID><ELEMENT_SET_NO>999</ELEMENT_SET_NO><REV_AT_EPOCH>12171</REV_AT_EPOCH><BSTAR>.21584862E-3</BSTAR><MEAN_MOTION_DOT>.104E-5</MEAN_MOTION_DOT><MEAN_MOTION_DDOT>0</MEAN_MOTION_DDOT></tleParameters></data></segment></body></omm>
<omm id="CCSDS_OMM_VERS" version="2.0">
<header><CREATION_DATE/><ORIGINATOR/></header><body><segment><metadata><OBJECT_NAME>ONEWEB-0015</OBJECT_NAME><OBJECT_ID>2024-188A</OBJECT_ID><CENTER_NAME>EARTH</CENTER_NAME><REF_FRAME>TEME</REF_FRAME><TIME_SYSTEM>UTC</TIME_SYSTEM><MEAN_ELEMENT_THEORY>SGP4</MEAN_ELEMENT_THEORY></metadata><data><meanElements><EPOCH>2025-09-16T06:02:06.661536</EPOCH><MEAN_MOTION>13.11417993</MEAN_MOTION><ECCENTRICITY>.0002238</ECCENTRICITY><INCLINATION>87.8780</INCLINATION><RA_OF_ASC_NODE>75.6743</RA_OF_ASC_NODE><ARG_OF_PERICENTER>80.2258</ARG_OF_PERICENTER><MEAN_ANOMALY>279.9123</MEAN_ANOMALY></meanElements><tleParameters><EPHEMERIS_TYPE>0</EPHEMERIS_TYPE><CLASSIFICATION_TYPE>U</CLASSIFICATION_TYPE><NORAD_CAT_ID>61594</NORAD_CAT_ID><ELEMENT_SET_NO>999</ELEMENT_SET_NO><REV_AT_EPOCH>4855</REV_AT_EPOCH><BSTAR>.16805903E-2</BSTAR><MEAN_MOTION_DOT>.608E-5</MEAN_MOTION_DOT><MEAN_MOTION_DDOT>0</MEAN_MOTION_DDOT></tleParameters></data></segment></body></omm>

</ndm>
